HIMAWARI-8              
1 40267U 14060A   23257.40209427 -.00000280  00000+0  00000+0 0  9996
2 40267   0.0268 159.3687 0000887  62.7012  56.4587  1.00268456 32762
